GOES 17                 
1 43226U 18022A   26132.80392306 -.00000169  00000+0  00000+0 0  9990
2 43226   0.8470  86.1911 0000608 326.0673  18.2476  1.00271749 30063
FENGYUN 2H              
1 43491U 18050A   26132.83737654 -.00000116  00000+0  00000+0 0  9999
2 43491   2.9399  79.4686 0001378 138.4658  33.5397  1.00273500 29086
METOP-C                 
1 43689U 18087A   26132.80383168  .00000048  00000+0  41719-4 0  9992
2 43689  98.6662 193.0500 0000261 111.1064 249.0142 14.21502048389807
GEO-KOMPSAT-2A          
1 43823U 18100A   26132.84708324 -.00000331  00000+0  00000+0 0  9996
2 43823   0.0490  94.2718 0002039 339.5772 229.9820  1.00269572 27278
METEOR-M2 2             
1 44387U 19038A   26132.84047714 -.00000181  00000+0 -58510-4 0  9990
2 44387  98.9138 119.6072 0002271 102.4789 257.6643 14.24355391356267
ARKTIKA-M 1             
1 47719U 21016A   26129.11511190 -.00000078  00000+0  00000+0 0  9991
2 47719  63.2307  63.2755 7273343 269.7576  14.8669  2.00634688 38002
FENGYUN 3E              
1 49008U 21062A   26132.89771716 -.00000153  00000+0 -51387-4 0  9990
2 49008  98.7505 136.6991 0001758 148.3011 211.8272 14.19900869251571
GOES 18                 
1 51850U 22021A   26132.65190730  .00000000  00000+0  00000+0 0  9999
2 51850   0.0187  62.8654 0000336  69.8719 195.3664  1.00270121  6239
NOAA 21 (JPSS-2)        
1 54234U 22150A   26132.79225590  .00000017  00000+0  28767-4 0  9992
2 54234  98.7047  72.1786 0000899 339.6863  20.4277 14.19558824181526
METEOSAT-12 (MTG-I1)    
1 54743U 22170C   26132.82160311  .00000005  00000+0  00000+0 0  9994
2 54743   0.7419  24.8567 0000794 353.3387 147.8157  1.00272233 12624
TIANMU-1 03             
1 55973U 23039A   26132.85651243  .00010419  00000+0  21356-3 0  9998
2 55973  97.5223 305.4749 0002554 199.2719 160.8434 15.46263173175372
TIANMU-1 04             
1 55974U 23039B   26132.85919072  .00010565  00000+0  21237-3 0  9996
2 55974  97.5160 304.6302 0003266 199.5506 160.5618 15.46825245175383
TIANMU-1 05             
1 55975U 23039C   26132.83566170  .00009946  00000+0  20443-3 0  9991
2 55975  97.5205 305.0811 0001873 222.8550 137.2553 15.46197075175354
TIANMU-1 06             
1 55976U 23039D   26132.86056031  .00010497  00000+0  21163-3 0  9998
2 55976  97.5213 305.7078 0002316 219.0176 141.0907 15.46744578175386
FENGYUN 3G              
1 56232U 23055A   26132.79234497  .00014182  00000+0  22867-3 0  9995
2 56232  49.9918 168.6179 0006003  32.8971 327.2369 15.53126635174503
METEOR-M2 3             
1 57166U 23091A   26132.82676174 -.00000019  00000+0  10769-4 0  9992
2 57166  98.6109 188.5238 0002757 273.8526  86.2338 14.24043606149485
TIANMU-1 07             
1 57399U 23101A   26132.83904094  .00004016  00000+0  14328-3 0  9992
2 57399  97.2622 184.3259 0000802 210.9044 149.2150 15.29445553156248
TIANMU-1 08             
1 57400U 23101B   26132.87166705  .00003684  00000+0  13152-3 0  9992
2 57400  97.2609 184.1324 0002647 217.9500 142.1555 15.29473300156242
TIANMU-1 09             
1 57401U 23101C   26132.85526051  .00004113  00000+0  14649-3 0  9995
2 57401  97.2568 183.5515 0001095 240.0847 120.0285 15.29487932156240
TIANMU-1 10             
1 57402U 23101D   26132.88758131  .00004360  00000+0  15493-3 0  9997
2 57402  97.2647 184.5977 0002489 241.6131 118.4859 15.29523460156248
FENGYUN 3F              
1 57490U 23111A   26132.81195584  .00000010  00000+0  25033-4 0  9995
2 57490  98.6863 203.4771 0001223 114.7904 245.3400 14.19932610143849
ARKTIKA-M 2             
1 58584U 23198A   26131.87078771  .00000209  00000+0  00000+0 0  9990
2 58584  63.2200 158.4122 6892538 267.5395  18.8214  2.00594641 17593
TIANMU-1 11             
1 58645U 23205A   26132.85912773  .00003591  00000+0  13969-3 0  9994
2 58645  97.3470 154.9780 0010611 123.6711 236.5541 15.26617607132131
TIANMU-1 12             
1 58646U 23205B   26132.82853042  .00003757  00000+0  14626-3 0  9990
2 58646  97.3460 154.7111 0009100 109.2837 250.9387 15.26570000132118
TIANMU-1 13             
1 58647U 23205C   26132.85737664  .00003629  00000+0  14198-3 0  9997
2 58647  97.3487 155.0067 0009018  92.7890 267.4381 15.26426571132115
TIANMU-1 14             
1 58648U 23205D   26132.84361551  .00003781  00000+0  14760-3 0  9999
2 58648  97.3423 154.2027 0009839  96.7757 263.4602 15.26471247132112
TIANMU-1 19             
1 58660U 23208A   26132.86896741  .00005564  00000+0  18820-3 0  9994
2 58660  97.4463 249.0126 0006416  86.4228 273.7746 15.31019412131920
TIANMU-1 20             
1 58661U 23208B   26132.86891367  .00005503  00000+0  17934-3 0  9992
2 58661  97.4402 249.6113 0008587  92.1308 268.0916 15.32209978132016
TIANMU-1 21             
1 58662U 23208C   26132.84403571  .00006417  00000+0  19474-3 0  9993
2 58662  97.4459 252.1174 0008504  86.6092 273.6123 15.34424433132145
TIANMU-1 22             
1 58663U 23208D   26132.83934439  .00004927  00000+0  16943-3 0  9997
2 58663  97.4458 248.9475 0005237 105.1328 255.0492 15.30542541131926
TIANMU-1 15             
1 58700U 24004A   26132.83943205  .00003841  00000+0  14924-3 0  9996
2 58700  97.4675 319.0331 0008507 110.4303 249.7849 15.26643382130380
TIANMU-1 16             
1 58701U 24004B   26132.82232949  .00003799  00000+0  14890-3 0  9996
2 58701  97.4621 318.2928 0007459 112.5316 247.6713 15.26371359130386
TIANMU-1 17             
1 58702U 24004C   26132.87334216  .00003880  00000+0  15199-3 0  9996
2 58702  97.4650 318.8155 0006957 116.2694 243.9260 15.26372902130380
TIANMU-1 18             
1 58703U 24004D   26132.85574483  .00003636  00000+0  14154-3 0  9996
2 58703  97.4667 319.0310 0005577 110.6911 249.4925 15.26636349130389
INSAT-3DS               
1 58990U 24033A   26132.83789654 -.00000143  00000+0  00000+0 0  9994
2 58990   0.0641 257.2242 0001424 154.7900 202.3249  1.00271395 46713
METEOR-M2 4             
1 59051U 24039A   26132.87168836  .00000000  00000+0  19534-4 0  9994
2 59051  98.6991  92.6184 0005916 273.4991  86.5510 14.22425849114248
GOES 19                 
1 60133U 24119A   26132.59284154 -.00000236  00000+0  00000+0 0  9992
2 60133   0.0180 139.8896 0000570 333.5872 255.1312  1.00271996  6607
FENGYUN 3H              
1 65815U 25219A   26132.80785995  .00000019  00000+0  29433-4 0  9993
2 65815  98.6756  74.2684 0001353 103.0264 257.1063 14.19913887 32366
OSCAR 7 (AO-7)          
1 07530U 74089B   26132.87533286 -.00000029  00000+0  10796-3 0  9996
2 07530 101.9917 145.7521 0012140 196.7820 238.0696 12.53697474356096
PHASE 3B (AO-10)        
1 14129U 83058B   26129.52219316  .00000202  00000+0  00000+0 0  9992
2 14129  25.8944 225.9972 6024432 105.0137 325.5502  2.05868845294693
UOSAT 2 (UO-11)         
1 14781U 84021B   26132.84792309  .00000849  00000+0  92196-4 0  9993
2 14781  97.8037  98.8254 0006342 309.0891  50.9763 14.90697322251863
LUSAT (LO-19)           
1 20442U 90005G   26132.04164771  .00000072  00000+0  42549-4 0  9996
2 20442  98.8872 152.8477 0010749 316.4067  43.6266 14.34111570897219
EYESAT A (AO-27)        
1 22825U 93061C   26132.47840235  .00000046  00000+0  34367-4 0  9991
2 22825  98.6892 199.9017 0008025 197.5973 162.4932 14.30932168701894
ITAMSAT (IO-26)         
1 22826U 93061D   26132.46844700  .00000041  00000+0  32501-4 0  9995
2 22826  98.6840 199.8056 0008878 181.2449 178.8713 14.31358097702202
RADIO ROSTO (RS15)      
1 23439U 94085A   26132.81772697 -.00000045  00000+0 -77896-4 0  9999
2 23439  64.8193   0.4203 0154957  10.3508 350.0547 11.27583711291913
JAS-2 (FO-29)           
1 24278U 96046B   26132.82172513 -.00000025  00000+0  10649-4 0  9992
2 24278  98.5279 346.5311 0349707 188.0537 171.4897 13.53272310468383
TECHSAT 1B (GO-32)      
1 25397U 98043D   26132.87255970  .00000029  00000+0  32726-4 0  9991
2 25397  99.0064 124.7427 0001011  13.1949 346.9255 14.24421265446305
ISS (ZARYA)             
1 25544U 98067A   26132.84394688  .00005010  00000+0  98361-4 0  9990
2 25544  51.6312 115.0561 0007510  52.2723 307.8945 15.49198654566277
PCSAT (NO-44)           
1 26931U 01043C   26132.53798604  .00000068  00000+0  56189-4 0  9991
2 26931  67.0512 336.4774 0006284 263.6947  96.3440 14.31941857285346
SAUDISAT 1C (SO-50)     
1 27607U 02058C   26132.34773994  .00000635  00000+0  92778-4 0  9997
2 27607  64.5523 239.8634 0075634 269.0204  90.2235 14.82969432259142
CUTE-1 (CO-55)          
1 27844U 03031E   26132.77239405  .00000191  00000+0  10155-3 0  9998
2 27844  98.6747 141.7761 0008348 291.1479  68.8807 14.24313071186638
CUBESAT XI-IV (CO-57)   
1 27848U 03031J   26132.46199470  .00000167  00000+0  92608-4 0  9992
2 27848  98.6779 141.2109 0008495 313.1821  46.8647 14.23601104186293
MOZHAETS 4 (RS22)       
1 27939U 03042A   26132.84332200  .00001096  00000+0  17720-3 0  9990
2 27939  98.3476 316.2061 0011907  26.8479  97.7232 14.73405051210342
CUBESAT XI-V            
1 28895U 05043F   26132.66158955  .00000827  00000+0  13840-3 0  9998
2 28895  98.2946 287.5478 0013167 322.3080  37.7203 14.72535163 96520
CUTE-1.7+APD II (CO-65) 
1 32785U 08021C   26132.84521333  .00002895  00000+0  18667-3 0  9993
2 32785  97.8259 113.5431 0010036 140.5484 219.6477 15.09105840979869
SEEDS II (CO-66)        
1 32791U 08021J   26132.73647330  .00011772  00000+0  38923-3 0  9995
2 32791  97.7525 128.9791 0005011  84.8915 275.2897 15.31513020981861
YUBILEINY (RS30)        
1 32953U 08025A   26132.76859314 -.00000021  00000+0 -22185-3 0  9999
2 32953  82.5071  17.4718 0020334  30.8376 329.3894 12.43177866815292
KKS-1 (KISEKI)          
1 33499U 09002H   26132.83566764  .00000814  00000+0  10685-3 0  9993
2 33499  98.1195  54.7202 0009046  51.5420 308.6603 14.83028970930953
SWISSCUBE               
1 35932U 09051B   26132.24860676  .00000616  00000+0  13145-3 0  9999
2 35932  98.4058  39.5092 0006254 336.3034  23.7877 14.62409745883909
